{"type": "FeatureCollection", "features": [ {"type": "Feature", "properties": {"norad_id": 31078, "name": "FENGYUN 1C DEB", "group": "fengyun-1c-debris", "lat": -19.85410147266728, "lon": -141.4241601097605, "alt_km": 754.9880577013982, "timestamp": "2025-12-07T09:35:10.070790+00:00", "meta": {"OBJECT_NAME": "FENGYUN 1C DEB", "OBJECT_ID": "1999-025BFY", "EPOCH": "2025-12-05T09:39:35.353728", "MEAN_MOTION": 14.22045821, "ECCENTRICITY": 0.01168752, "INCLINATION": 98.8694, "RA_OF_ASC_NODE": 39.8, "ARG_OF_PERICENTER": 169.8882, "MEAN_ANOMALY": 252.0219, "EPHEMERIS_TYPE": 0, "CLASSIFICATION_TYPE": "U", "NORAD_CAT_ID": 31078, "ELEMENT_SET_NO": 999, "REV_AT_EPOCH": 96788, "BSTAR": 0.0010409368, "MEAN_MOTION_DOT": 2.424e-05, "MEAN_MOTION_DDOT": 0}, "tle": {"line1": "1 31078U 99025BFY 25339.40249252  .00002424  00000+0  10409-2 0  9991", "line2": "2 31078  98.8694  39.8000 0116875 169.8882 252.0219 14.22045821967883"}}, "geometry": {"type": "Point", "coordinates": [-141.4241601097605, -19.85410147266728]}}, {"type": "Feature", "properties": {"norad_id": 31081, "name": "FENGYUN 1C DEB", "group": "fengyun-1c-debris", "lat": -78.79560259342679, "lon": 49.204781099540334, "alt_km": 849.8834516633651, "timestamp": "2025-12-07T09:35:10.070800+00:00", "meta": {"OBJECT_NAME": "FENGYUN 1C DEB", "OBJECT_ID": "1999-025BGB", "EPOCH": "2025-12-04T06:55:14.879424", "MEAN_MOTION": 14.06294521, "ECCENTRICITY": 0.0047176, "INCLINATION": 98.7708, "RA_OF_ASC_NODE": 354.9871, "ARG_OF_PERICENTER": 255.2266, "MEAN_ANOMALY": 120.0318, "EPHEMERIS_TYPE": 0, "CLASSIFICATION_TYPE": "U", "NORAD_CAT_ID": 31081, "ELEMENT_SET_NO": 999, "REV_AT_EPOCH": 96342, "BSTAR": 8.3325e-05, "MEAN_MOTION_DOT": 9.6e-07, "MEAN_MOTION_DDOT": 0}, "tle": {"line1": "1 31081U 99025BGB 25338.28836666  .00000096  00000+0  83325-4 0  9993", "line2": "2 31081  98.7708 354.9871 0047176 255.2266 120.0318 14.06294521963427"}}, "geometry": {"type": "Point", "coordinates": [49.204781099540334, -78.79560259342679]}}, {"type": "Feature", "properties": {"norad_id": 31083, "name": "FENGYUN 1C DEB", "group": "fengyun-1c-debris", "lat": -20.786717926075088, "lon": 101.91193231734559, "alt_km": 671.6837516045553, "timestamp": "2025-12-07T09:35:10.070811+00:00", "meta": {"OBJECT_NAME": "FENGYUN 1C DEB", "OBJECT_ID": "1999-025BGD", "EPOCH": "2025-12-06T21:07:57.126720", "MEAN_MOTION": 14.61793356, "ECCENTRICITY": 0.003085, "INCLINATION": 98.647, "RA_OF_ASC_NODE": 98.0579, "ARG_OF_PERICENTER": 323.7476, "MEAN_ANOMALY": 166.1191, "EPHEMERIS_TYPE": 0, "CLASSIFICATION_TYPE": "U", "NORAD_CAT_ID": 31083, "ELEMENT_SET_NO": 999, "REV_AT_EPOCH": 97624, "BSTAR": 0.0050164957, "MEAN_MOTION_DOT": 0.00025243, "MEAN_MOTION_DDOT": 0}, "tle": {"line1": "1 31083U 99025BGD 25340.88052230  .00025243  00000+0  50165-2 0  9996", "line2": "2 31083  98.6470  98.0579 0030850 323.7476 166.1191 14.61793356976245"}}, "geometry": {"type": "Point", "coordinates": [101.91193231734559, -20.786717926075088]}}, {"type": "Feature", "properties": {"norad_id": 31085, "name": "FENGYUN 1C DEB", "group": "fengyun-1c-debris", "lat": -11.18062284525623, "lon": -176.19708836356037, "alt_km": 750.0435070181766, "timestamp": "2025-12-07T09:35:10.070821+00:00", "meta": {"OBJECT_NAME": "FENGYUN 1C DEB", "OBJECT_ID": "1999-025BGF", "EPOCH": "2025-12-05T12:26:44.047104", "MEAN_MOTION": 14.30302918, "ECCENTRICITY": 0.00876108, "INCLINATION": 98.9846, "RA_OF_ASC_NODE": 180.0694, "ARG_OF_PERICENTER": 38.9559, "MEAN_ANOMALY": 351.3018, "EPHEMERIS_TYPE": 0, "CLASSIFICATION_TYPE": "U", "NORAD_CAT_ID": 31085, "ELEMENT_SET_NO": 999, "REV_AT_EPOCH": 97613, "BSTAR": 0.00017437942, "MEAN_MOTION_DOT": 4.25e-06, "MEAN_MOTION_DDOT": 0}, "tle": {"line1": "1 31085U 99025BGF 25339.51856536  .00000425  00000+0  17438-3 0  9999", "line2": "2 31085  98.9846 180.0694 0087610  38.9559 351.3018 14.30302918976130"}}, "geometry": {"type": "Point", "coordinates": [-176.19708836356037, -11.18062284525623]}}, {"type": "Feature", "properties": {"norad_id": 31087, "name": "FENGYUN 1C DEB", "group": "fengyun-1c-debris", "lat": -81.87910950474878, "lon": 88.64811169238382, "alt_km": 602.1553990802004, "timestamp": "2025-12-07T09:35:10.070831+00:00", "meta": {"OBJECT_NAME": "FENGYUN 1C DEB", "OBJECT_ID": "1999-025BGH", "EPOCH": "2025-12-05T12:38:57.037920", "MEAN_MOTION": 14.60199679, "ECCENTRICITY": 0.0172306, "INCLINATION": 98.1025, "RA_OF_ASC_NODE": 0.0936, "ARG_OF_PERICENTER": 313.6563, "MEAN_ANOMALY": 201.1954, "EPHEMERIS_TYPE": 0, "CLASSIFICATION_TYPE": "U", "NORAD_CAT_ID": 31087, "ELEMENT_SET_NO": 999, "REV_AT_EPOCH": 98664, "BSTAR": 0.001563813, "MEAN_MOTION_DOT": 9.245e-05, "MEAN_MOTION_DDOT": 0}, "tle": {"line1": "1 31087U 99025BGH 25339.52704905  .00009245  00000+0  15638-2 0  9992", "line2": "2 31087  98.1025   0.0936 0172306 313.6563 201.1954 14.60199679986647"}}, "geometry": {"type": "Point", "coordinates": [88.64811169238382, -81.87910950474878]}}, {"type": "Feature", "properties": {"norad_id": 31088, "name": "FENGYUN 1C DEB", "group": "fengyun-1c-debris", "lat": 60.218398772561706, "lon": 24.31634378021737, "alt_km": 770.322549456575, "timestamp": "2025-12-07T09:35:10.070841+00:00", "meta": {"OBJECT_NAME": "FENGYUN 1C DEB", "OBJECT_ID": "1999-025BGJ", "EPOCH": "2025-12-06T03:10:53.544288", "MEAN_MOTION": 14.28618697, "ECCENTRICITY": 0.00290139, "INCLINATION": 99.4119, "RA_OF_ASC_NODE": 39.7992, "ARG_OF_PERICENTER": 80.7204, "MEAN_ANOMALY": 309.1309, "EPHEMERIS_TYPE": 0, "CLASSIFICATION_TYPE": "U", "NORAD_CAT_ID": 31088, "ELEMENT_SET_NO": 999, "REV_AT_EPOCH": 96455, "BSTAR": 0.00281036, "MEAN_MOTION_DOT": 7.045e-05, "MEAN_MOTION_DDOT": 0}, "tle": {"line1": "1 31088U 99025BGJ 25340.13256417  .00007045  00000+0  28104-2 0  9990", "line2": "2 31088  99.4119  39.7992 0029013  80.7204 309.1309 14.28618697964556"}}, "geometry": {"type": "Point", "coordinates": [24.31634378021737, 60.218398772561706]}}, {"type": "Feature", "properties": {"norad_id": 31089, "name": "FENGYUN 1C DEB", "group": "fengyun-1c-debris", "lat": -31.04729087894271, "lon": -61.77561304205204, "alt_km": 794.7318746097244, "timestamp": "2025-12-07T09:35:10.070851+00:00", "meta": {"OBJECT_NAME": "FENGYUN 1C DEB", "OBJECT_ID": "1999-025BGK", "EPOCH": "2025-12-06T21:12:12.784320", "MEAN_MOTION": 13.88302252, "ECCENTRICITY": 0.02058012, "INCLINATION": 98.9497, "RA_OF_ASC_NODE": 123.1725, "ARG_OF_PERICENTER": 227.4968, "MEAN_ANOMALY": 287.2473, "EPHEMERIS_TYPE": 0, "CLASSIFICATION_TYPE": "U", "NORAD_CAT_ID": 31089, "ELEMENT_SET_NO": 999, "REV_AT_EPOCH": 67978, "BSTAR": 0.0013631183, "MEAN_MOTION_DOT": 1.889e-05, "MEAN_MOTION_DDOT": 0}, "tle": {"line1": "1 31089U 99025BGK 25340.88348130  .00001889  00000+0  13631-2 0  9996", "line2": "2 31089  98.9497 123.1725 0205801 227.4968 287.2473 13.88302252679788"}}, "geometry": {"type": "Point", "coordinates": [-61.77561304205204, -31.04729087894271]}}, {"type": "Feature", "properties": {"norad_id": 31090, "name": "FENGYUN 1C DEB", "group": "fengyun-1c-debris", "lat": 29.427305185971573, "lon": 79.17892457619894, "alt_km": 486.93836647223907, "timestamp": "2025-12-07T09:35:10.070862+00:00", "meta": {"OBJECT_NAME": "FENGYUN 1C DEB", "OBJECT_ID": "1999-025BGL", "EPOCH": "2025-12-06T19:21:05.691168", "MEAN_MOTION": 15.32409144, "ECCENTRICITY": 0.00566451, "INCLINATION": 98.9852, "RA_OF_ASC_NODE": 83.5808, "ARG_OF_PERICENTER": 153.3649, "MEAN_ANOMALY": 207.0518, "EPHEMERIS_TYPE": 0, "CLASSIFICATION_TYPE": "U", "NORAD_CAT_ID": 31090, "ELEMENT_SET_NO": 999, "REV_AT_EPOCH": 747, "BSTAR": 0.002881013, "MEAN_MOTION_DOT": 0.00095786, "MEAN_MOTION_DDOT": 0}, "tle": {"line1": "1 31090U 99025BGL 25340.80631587  .00095786  00000+0  28810-2 0  9995", "line2": "2 31090  98.9852  83.5808 0056645 153.3649 207.0518 15.32409144  7479"}}, "geometry": {"type": "Point", "coordinates": [79.17892457619894, 29.427305185971573]}}, {"type": "Feature", "properties": {"norad_id": 31091, "name": "FENGYUN 1C DEB", "group": "fengyun-1c-debris", "lat": 35.89411086295825, "lon": -47.94875737453836, "alt_km": 923.2265482678449, "timestamp": "2025-12-07T09:35:10.070872+00:00", "meta": {"OBJECT_NAME": "FENGYUN 1C DEB", "OBJECT_ID": "1999-025BGM", "EPOCH": "2025-12-05T16:37:51.123648", "MEAN_MOTION": 13.54131389, "ECCENTRICITY": 0.02909862, "INCLINATION": 99.2239, "RA_OF_ASC_NODE": 317.2108, "ARG_OF_PERICENTER": 346.8703, "MEAN_ANOMALY": 12.4975, "EPHEMERIS_TYPE": 0, "CLASSIFICATION_TYPE": "U", "NORAD_CAT_ID": 31091, "ELEMENT_SET_NO": 999, "REV_AT_EPOCH": 61544, "BSTAR": 0.0015194741, "MEAN_MOTION_DOT": 1.309e-05, "MEAN_MOTION_DDOT": 0}, "tle": {"line1": "1 31091U 99025BGM 25339.69295282  .00001309  00000+0  15195-2 0  9999", "line2": "2 31091  99.2239 317.2108 0290986 346.8703  12.4975 13.54131389615443"}}, "geometry": {"type": "Point", "coordinates": [-47.94875737453836, 35.89411086295825]}}, {"type": "Feature", "properties": {"norad_id": 31092, "name": "FENGYUN 1C DEB", "group": "fengyun-1c-debris", "lat": -6.641041086225927, "lon": -83.76452225760929, "alt_km": 889.9552483162606, "timestamp": "2025-12-07T09:35:10.070882+00:00", "meta": {"OBJECT_NAME": "FENGYUN 1C DEB", "OBJECT_ID": "1999-025BGN", "EPOCH": "2025-11-15T07:00:52.552224", "MEAN_MOTION": 13.46401433, "ECCENTRICITY": 0.03278725, "INCLINATION": 99.7115, "RA_OF_ASC_NODE": 75.9227, "ARG_OF_PERICENTER": 204.4209, "MEAN_ANOMALY": 154.1084, "EPHEMERIS_TYPE": 0, "CLASSIFICATION_TYPE": "U", "NORAD_CAT_ID": 31092, "ELEMENT_SET_NO": 999, "REV_AT_EPOCH": 91512, "BSTAR": 0.0042000132, "MEAN_MOTION_DOT": 3.457e-05, "MEAN_MOTION_DDOT": 0}, "tle": {"line1": "1 31092U 99025BGN 25319.29227491  .00003457  00000+0  42000-2 0  9992", "line2": "2 31092  99.7115  75.9227 0327872 204.4209 154.1084 13.46401433915121"}}, "geometry": {"type": "Point", "coordinates": [-83.76452225760929, -6.641041086225927]}}]}